[{"OBJECT_NAME":"STARLINK-4153","OBJECT_ID":"2022-076BD","EPOCH":"2026-03-09T06:41:51.426816","MEAN_MOTION":15.08840886,"ECCENTRICITY":0.000124,"INCLINATION":53.2173,"RA_OF_ASC_NODE":75.9618,"ARG_OF_PERICENTER":83.7396,"MEAN_ANOMALY":276.3738,"EPHEMERIS_TYPE":0,"CLASSIFICATION_TYPE":"U","NORAD_CAT_ID":53037,"ELEMENT_SET_NO":999,"REV_AT_EPOCH":20306,"BSTAR":4.033351e-5,"MEAN_MOTION_DOT":3.54e-6,"MEAN_MOTION_DDOT":0},{"OBJECT_NAME":"IRIDIUM 33 DEB","OBJECT_ID":"1997-051QE","EPOCH":"2026-03-07T09:35:18.798432","MEAN_MOTION":15.07266806,"ECCENTRICITY":0.0013423,"INCLINATION":86.3519,"RA_OF_ASC_NODE":312.8742,"ARG_OF_PERICENTER":171.2899,"MEAN_ANOMALY":188.8573,"EPHEMERIS_TYPE":0,"CLASSIFICATION_TYPE":"U","NORAD_CAT_ID":35484,"ELEMENT_SET_NO":999,"REV_AT_EPOCH":63287,"BSTAR":0.0040001,"MEAN_MOTION_DOT":0.00060878,"MEAN_MOTION_DDOT":0}]
